FLOCK 3P-75             
1 41979U 17008AH  17332.09372178  .00002325  00000-0  10029-3 0  9996
2 41979  97.4798  33.0255 0007934 352.7393   7.3728 15.23540708 43479
FLOCK 3P-70             
1 41980U 17008AJ  17332.15765204  .00001560  00000-0  68282-4 0  9996
2 41980  97.4797  33.0960 0007895 351.7901   8.3206 15.23538740 43322
FLOCK 3P-73             
1 41981U 17008AK  17331.83800434  .00001659  00000-0  72402-4 0  9994
2 41981  97.4798  32.7584 0008220 353.6603   6.4529 15.23541895 43417
FLOCK 3P-88             
1 41982U 17008AL  17331.82682796  .00004803  00000-0  20366-3 0  9998
2 41982  97.4796  32.7621 0007990 353.5422   6.5711 15.23577262 42385
FLOCK 3P-85             
1 41983U 17008AM  17332.79773014  .00002267  00000-0  97674-4 0  9999
2 41983  97.4800  33.7707 0007878 353.8150   6.2988 15.23600736 43437
FLOCK 3P-79             
1 41984U 17008AN  17332.47041295  .00005460  00000-0  23075-3 0  9995
2 41984  97.4800  33.4412 0007617 355.3999   4.7166 15.23630457 43385
FLOCK 3P-86             
1 41985U 17008AP  17332.47143972  .00005273  00000-0  22302-3 0  9995
2 41985  97.4800  33.4347 0007564 354.4942   5.6210 15.23618791 43378
FLOCK 3P-36             
1 41986U 17008AQ  17332.73680738  .00005190  00000-0  21968-3 0  9996
2 41986  97.4784  33.6252 0007228 351.6469   8.4647 15.23605123 42905
FLOCK 3P-30             
1 41987U 17008AR  17332.85879014  .00001821  00000-0  79078-4 0  9990
2 41987  97.4779  33.7694 0007183 352.2107   7.9017 15.23602729 43395
FLOCK 3P-34             
1 41988U 17008AS  17332.14906066  .00004266  00000-0  18101-3 0  9996
2 41988  97.4778  33.0174 0007263 350.9283   9.1822 15.23624613 42810
FLOCK 3P-35             
1 41989U 17008AT  17332.15143341  .00003063  00000-0  13100-3 0  9995
2 41989  97.4777  33.0129 0007414 350.5690   9.5407 15.23584855 42812
FLOCK 3P-33             
1 41990U 17008AU  17332.21244972  .00004509  00000-0  19125-3 0  9995
2 41990  97.4779  33.0904 0007093 352.2000   7.9125 15.23610822 42828
LEMUR-2-SATCHMO         
1 41991U 17008AV  17332.80968036  .00001720  00000-0  76568-4 0  9992
2 41991  97.4767  33.5073 0007444 352.6494   7.4632 15.22818386 42900
LEMUR-2-MIA-GRACE       
1 41992U 17008AW  17331.84945416  .00002694  00000-0  11677-3 0  9993
2 41992  97.4774  32.6552 0007408 356.5547   3.5637 15.23236645 42762
LEMUR-2-SMITA-SHARAD    
1 41993U 17008AX  17332.13265944  .00001669  00000-0  74050-4 0  9994
2 41993  97.4770  32.8821 0007416 355.2598   4.8567 15.22975442 42806
LEMUR-2-SPIRE-MINIONS   
1 41994U 17008AY  17331.85721417  .00002662  00000-0  11552-3 0  9996
2 41994  97.4770  32.6373 0007429 355.4940   4.6228 15.23196611 42765
LEMUR-2-RDEATON         
1 41995U 17008AZ  17332.12634581  .00001671  00000-0  73985-4 0  9991
2 41995  97.4771  32.8940 0008871   7.2625 352.8739 15.23030022 43481
LEMUR-2-NOGUECORREIG    
1 41996U 17008BA  17331.71215181  .00001591  00000-0  70226-4 0  9993
2 41996  97.4775  32.5344 0008788   9.0653 351.0741 15.23216163 42642
LEMUR-2-JOBANPUTRA      
1 41997U 17008BB  17332.80930927  .00001866  00000-0  81526-4 0  9997
2 41997  97.4775  33.6744 0008668   5.1266 355.0058 15.23355215 42909
LEMUR-2-TACHIKOMA       
1 41998U 17008BC  17332.85481465  .00001911  00000-0  84444-4 0  9994
2 41998  97.4768  33.6037 0008759   5.0361 355.0962 15.22933297 42830
BGUSAT                  
1 41999U 17008BD  17332.85443712  .00003344  00000-0  14234-3 0  9999
2 41999  97.4783  33.7824 0008529   6.2255 353.9086 15.23668592 42910
DIDO-2                  
1 42000U 17008BE  17332.14593176  .00001395  00000-0  62778-4 0  9996
2 42000  97.4764  32.8611 0008870   8.2737 351.8644 15.22750307 42803
FLOCK 3P-49             
1 42001U 17008BF  17332.13287713  .00004537  00000-0  19231-3 0  9999
2 42001  97.4780  33.0467 0008289   9.7709 350.3688 15.23620012 43334
FLOCK 3P-67             
1 42002U 17008BG  17332.85849374  .00003532  00000-0  15002-3 0  9992
2 42002  97.4777  33.7567 0008081   6.2534 353.8803 15.23708896 43601
FLOCK 3P-68             
1 42003U 17008BH  17331.87792918  .00004340  00000-0  18409-3 0  9997
2 42003  97.4776  32.7639 0008362   8.4587 351.6789 15.23620360 43095
FLOCK 3P-41             
1 42004U 17008BJ  17332.12825805  .00003268  00000-0  13944-3 0  9996
2 42004  97.4776  33.0360 0008127  10.0525 350.0873 15.23605650 43329
FLOCK 3P-45             
1 42005U 17008BK  17332.85409174  .00003683  00000-0  15629-3 0  9997
2 42005  97.4778  33.7617 0008032   7.4566 352.6789 15.23712360 43594
FLOCK 3P-48             
1 42006U 17008BL  17331.86875187  .00003255  00000-0  13891-3 0  9993
2 42006  97.4781  32.7864 0008104  11.9126 348.2301 15.23603319 43239
FLOCK 3P-43             
1 42007U 17008BM  17332.12983607  .00003164  00000-0  13518-3 0  9996
2 42007  97.4778  33.0395 0007937  11.2216 348.9196 15.23587241 43486
FLOCK 3P-42             
1 42008U 17008BN  17332.12907590  .00001663  00000-0  72557-4 0  9995
2 42008  97.4774  33.0345 0008068  10.4795 349.6609 15.23554905 43418
FLOCK 3P-61             
1 42009U 17008BP  17332.78442819  .00001701  00000-0  74157-4 0  9997
2 42009  97.4775  33.6965 0007964  10.5210 349.6192 15.23555506 43562
FLOCK 3P-40             
1 42010U 17008BQ  17332.71222422  .00001652  00000-0  72115-4 0  9995
2 42010  97.4769  33.6194 0007923  11.5756 348.5661 15.23544671 42819
FLOCK 3P-16             
1 42011U 17008BR  17332.10903885  .00001754  00000-0  76431-4 0  9996
2 42011  97.4771  33.0497 0007681  14.9132 345.2330 15.23523535 42665
FLOCK 3P-14             
1 42012U 17008BS  17331.84924920  .00003058  00000-0  13055-3 0  9991
2 42012  97.4778  32.7979 0007861  17.5998 342.5509 15.23635897 43241
FLOCK 3P-53             
1 42013U 17008BT  17332.18086509  .00003301  00000-0  14066-3 0  9996
2 42013  97.4767  33.0914 0007703  14.9903 345.1561 15.23647304 43293
FLOCK 3P-54             
1 42014U 17008BU  17331.85277815  .00001850  00000-0  80430-4 0  9998
2 42014  97.4772  32.7796 0007725  16.5071 343.6416 15.23525040 43410
PEASSS                  
1 42015U 17008BV  17332.42202224  .00002063  00000-0  89506-4 0  9995
2 42015  97.4758  33.3728 0006961  18.5153 341.6336 15.23470591 43342
AL-FARABI 1             
1 42016U 17008BW  17332.46050225  .00002503  00000-0  10705-3 0  9995
2 42016  97.4765  33.4857 0006827  19.4532 340.6964 15.23753514 43476
NAYIF-1 (EO-88)         
1 42017U 17008BX  17332.12923399  .00002059  00000-0  88561-4 0  9992
2 42017  97.4763  33.1599 0006851  20.8550 339.2965 15.23769018 43446
FLOCK 3P-23             
1 42018U 17008BY  17332.11425172  .00002913  00000-0  12499-3 0  9993
2 42018  97.4768  32.8804 0008096 347.1898  12.9132 15.23509971 42259
FLOCK 3P-76             
1 42019U 17008BZ  17332.47801522  .00005062  00000-0  21429-3 0  9991
2 42019  97.4803  33.4404 0007961 352.8795   7.2328 15.23609709 43370
FLOCK 3P-69             
1 42020U 17008CA  17332.47668177  .00005312  00000-0  22476-3 0  9991
2 42020  97.4803  33.4415 0007773 351.9002   8.2108 15.23605735 42265
FLOCK 3P-84             
1 42021U 17008CB  17331.96024915  .00003554  00000-0  15170-3 0  9990
2 42021  97.4796  32.8896 0008208 352.8540   7.2579 15.23534222 43303
FLOCK 3P-59             
1 42022U 17008CC  17332.81518470  .00003543  00000-0  15077-3 0  9994
2 42022  97.4778  33.6615 0007547 350.9407   9.1692 15.23640317 42453
FLOCK 3P-32             
1 42023U 17008CD  17332.48948537  .00002023  00000-0  87596-4 0  9997
2 42023  97.4775  33.3334 0007522 348.1415  11.9644 15.23561208 43547
FLOCK 3P-71             
1 42024U 17008CE  17331.84981682  .00004180  00000-0  17803-3 0  9994
2 42024  97.4803  32.7533 0008098 354.7763   5.3388 15.23504094 42318
FLOCK 3P-77             
1 42025U 17008CF  17332.21640845  .00004448  00000-0  18872-3 0  9994
2 42025  97.4799  33.1672 0007910 354.3321   5.7825 15.23601286 43345
FLOCK 3P-80             
1 42026U 17008CG  17331.87236090  .00004961  00000-0  20992-3 0  9995
2 42026  97.4799  32.8562 0007529 356.5714   3.5470 15.23639321 41437
FLOCK 3P-66             
1 42027U 17008CH  17332.13955599  .00004419  00000-0  18730-3 0  9993
2 42027  97.4780  33.0380 0008249   6.8174 353.3174 15.23635612 43443
FLOCK 3P-65             
1 42028U 17008CJ  17332.86023081  .00005100  00000-0  21573-3 0  9993
2 42028  97.4781  33.7597 0008095   4.8874 355.2440 15.23632905 43456
FLOCK 3P-50             
1 42029U 17008CK  17332.13418914  .00002099  00000-0  90573-4 0  9998
2 42029  97.4782  33.0524 0008070   9.8471 350.2923 15.23638202 42661
FLOCK 3P-52             
1 42030U 17008CL  17332.13559376  .00001617  00000-0  70538-4 0  9992
2 42030  97.4778  33.0382 0008135   8.8467 351.2911 15.23603709 43434
FLOCK 3P-46             
1 42031U 17008CM  17332.85301553  .00004062  00000-0  17252-3 0  9994
2 42031  97.4777  33.7572 0008023   7.6198 352.5160 15.23616095 43573
FLOCK 3P-47             
1 42032U 17008CN  17332.85466973  .00004101  00000-0  17417-3 0  9990
2 42032  97.4776  33.7538 0008017   8.3430 351.7939 15.23614744 43423
FLOCK 3P-44             
1 42033U 17008CP  17332.12542245  .00003139  00000-0  13420-3 0  9998
2 42033  97.4779  33.0511 0008133  13.4065 346.7386 15.23574075 42062
FLOCK 3P-64             
1 42034U 17008CQ  17331.79704975  .00001877  00000-0  81558-4 0  9996
2 42034  97.4773  32.7093 0008083  13.6174 346.5279 15.23538905 43438
FLOCK 3P-63             
1 42035U 17008CR  17331.72878496  .00001942  00000-0  84187-4 0  9994
2 42035  97.4772  32.6424 0008067  13.7903 346.3553 15.23565627 41395
FLOCK 3P-62             
1 42036U 17008CS  17332.82908380  .00003581  00000-0  15169-3 0  9997
2 42036  97.4774  33.7826 0007990  11.8260 348.3163 15.23788148 42761
FLOCK 3P-38             
1 42037U 17008CT  17331.85872952  .00001797  00000-0  78155-4 0  9997
2 42037  97.4773  32.7770 0007812  14.4496 345.6963 15.23554958 43399
